{"type": "FeatureCollection", "features": [ {"type": "Feature", "properties": {"norad_id": 35290, "name": "COSMOS 2251 DEB", "group": "cosmos-2251-debris", "lat": 17.64686301803795, "lon": -145.7948895506237, "alt_km": 626.4751929968579, "timestamp": "2025-12-22T20:43:46.244111+00:00", "meta": {"OBJECT_NAME": "COSMOS 2251 DEB", "OBJECT_ID": "1993-036AJU", "EPOCH": "2025-12-20T03:08:10.287168", "MEAN_MOTION": 14.80565596, "ECCENTRICITY": 0.00016036, "INCLINATION": 74.0049, "RA_OF_ASC_NODE": 44.8368, "ARG_OF_PERICENTER": 190.188, "MEAN_ANOMALY": 169.9265, "EPHEMERIS_TYPE": 0, "CLASSIFICATION_TYPE": "U", "NORAD_CAT_ID": 35290, "ELEMENT_SET_NO": 999, "REV_AT_EPOCH": 88067, "BSTAR": 0.0010027753, "MEAN_MOTION_DOT": 7.664e-05, "MEAN_MOTION_DDOT": 0}, "tle": {"line1": "1 35290U 93036AJU 25354.13067462  .00007664  00000+0  10028-2 0  9993", "line2": "2 35290  74.0049  44.8368 0001603 190.1880 169.9265 14.80565596880671"}}, "geometry": {"type": "Point", "coordinates": [-145.7948895506237, 17.64686301803795]}}, {"type": "Feature", "properties": {"norad_id": 35432, "name": "COSMOS 2251 DEB", "group": "cosmos-2251-debris", "lat": 13.040958789032766, "lon": 170.3777769951049, "alt_km": 501.622839545872, "timestamp": "2025-12-22T20:43:46.244122+00:00", "meta": {"OBJECT_NAME": "COSMOS 2251 DEB", "OBJECT_ID": "1993-036AKA", "EPOCH": "2025-12-22T10:33:02.372256", "MEAN_MOTION": 15.24271254, "ECCENTRICITY": 0.00124874, "INCLINATION": 74.0191, "RA_OF_ASC_NODE": 355.0792, "ARG_OF_PERICENTER": 325.0494, "MEAN_ANOMALY": 34.9884, "EPHEMERIS_TYPE": 0, "CLASSIFICATION_TYPE": "U", "NORAD_CAT_ID": 35432, "ELEMENT_SET_NO": 999, "REV_AT_EPOCH": 87651, "BSTAR": 0.0024812627, "MEAN_MOTION_DOT": 0.00061205, "MEAN_MOTION_DDOT": 0}, "tle": {"line1": "1 35432U 93036AKA 25356.43961079  .00061205  00000+0  24813-2 0  9991", "line2": "2 35432  74.0191 355.0792 0012487 325.0494  34.9884 15.24271254876517"}}, "geometry": {"type": "Point", "coordinates": [170.3777769951049, 13.040958789032766]}}, {"type": "Feature", "properties": {"norad_id": 35433, "name": "COSMOS 2251 DEB", "group": "cosmos-2251-debris", "lat": -15.851387157047398, "lon": -44.75880237983757, "alt_km": 764.3111138142822, "timestamp": "2025-12-22T20:43:46.244132+00:00", "meta": {"OBJECT_NAME": "COSMOS 2251 DEB", "OBJECT_ID": "1993-036AKB", "EPOCH": "2025-12-10T18:27:52.031808", "MEAN_MOTION": 14.34742553, "ECCENTRICITY": 0.00254013, "INCLINATION": 74.0339, "RA_OF_ASC_NODE": 342.0559, "ARG_OF_PERICENTER": 37.4572, "MEAN_ANOMALY": 142.4072, "EPHEMERIS_TYPE": 0, "CLASSIFICATION_TYPE": "U", "NORAD_CAT_ID": 35433, "ELEMENT_SET_NO": 999, "REV_AT_EPOCH": 86552, "BSTAR": 0.00041847558, "MEAN_MOTION_DOT": 1.164e-05, "MEAN_MOTION_DDOT": 0}, "tle": {"line1": "1 35433U 93036AKB 25344.76935222  .00001164  00000+0  41848-3 0  9992", "line2": "2 35433  74.0339 342.0559 0025401  37.4572 142.4072 14.34742553865528"}}, "geometry": {"type": "Point", "coordinates": [-44.75880237983757, -15.851387157047398]}}, {"type": "Feature", "properties": {"norad_id": 35434, "name": "COSMOS 2251 DEB", "group": "cosmos-2251-debris", "lat": -65.12977680956865, "lon": 157.22658554201075, "alt_km": 756.2091433497944, "timestamp": "2025-12-22T20:43:46.244142+00:00", "meta": {"OBJECT_NAME": "COSMOS 2251 DEB", "OBJECT_ID": "1993-036AKC", "EPOCH": "2025-12-22T05:54:05.337504", "MEAN_MOTION": 14.2571381, "ECCENTRICITY": 0.00872817, "INCLINATION": 74.039, "RA_OF_ASC_NODE": 196.4671, "ARG_OF_PERICENTER": 265.2189, "MEAN_ANOMALY": 93.8988, "EPHEMERIS_TYPE": 0, "CLASSIFICATION_TYPE": "U", "NORAD_CAT_ID": 35434, "ELEMENT_SET_NO": 999, "REV_AT_EPOCH": 86253, "BSTAR": 0.00053067113, "MEAN_MOTION_DOT": 1.284e-05, "MEAN_MOTION_DDOT": 0}, "tle": {"line1": "1 35434U 93036AKC 25356.24589511  .00001284  00000+0  53067-3 0  9994", "line2": "2 35434  74.0390 196.4671 0087281 265.2189  93.8988 14.25713810862538"}}, "geometry": {"type": "Point", "coordinates": [157.22658554201075, -65.12977680956865]}}, {"type": "Feature", "properties": {"norad_id": 35435, "name": "COSMOS 2251 DEB", "group": "cosmos-2251-debris", "lat": -63.67601572302478, "lon": -60.44233643131744, "alt_km": 638.2709853712113, "timestamp": "2025-12-22T20:43:46.244152+00:00", "meta": {"OBJECT_NAME": "COSMOS 2251 DEB", "OBJECT_ID": "1993-036AKD", "EPOCH": "2025-12-21T14:40:33.079008", "MEAN_MOTION": 14.78710754, "ECCENTRICITY": 0.0007054, "INCLINATION": 74.0111, "RA_OF_ASC_NODE": 86.6037, "ARG_OF_PERICENTER": 183.8083, "MEAN_ANOMALY": 241.499, "EPHEMERIS_TYPE": 0, "CLASSIFICATION_TYPE": "U", "NORAD_CAT_ID": 35435, "ELEMENT_SET_NO": 999, "REV_AT_EPOCH": 87670, "BSTAR": 0.0016617, "MEAN_MOTION_DOT": 0.00012188, "MEAN_MOTION_DDOT": 0}, "tle": {"line1": "1 35435U 93036AKD 25355.61149397  .00012188  00000+0  16617-2 0  9993", "line2": "2 35435  74.0111  86.6037 0007054 183.8083 241.4990 14.78710754876704"}}, "geometry": {"type": "Point", "coordinates": [-60.44233643131744, -63.67601572302478]}}, {"type": "Feature", "properties": {"norad_id": 35439, "name": "COSMOS 2251 DEB", "group": "cosmos-2251-debris", "lat": -61.1498269689289, "lon": 86.05020207621982, "alt_km": 750.9547202138046, "timestamp": "2025-12-22T20:43:46.244162+00:00", "meta": {"OBJECT_NAME": "COSMOS 2251 DEB", "OBJECT_ID": "1993-036AKH", "EPOCH": "2025-12-20T15:40:28.809408", "MEAN_MOTION": 13.92842634, "ECCENTRICITY": 0.0242584, "INCLINATION": 74.0193, "RA_OF_ASC_NODE": 121.1801, "ARG_OF_PERICENTER": 288.7541, "MEAN_ANOMALY": 84.8538, "EPHEMERIS_TYPE": 0, "CLASSIFICATION_TYPE": "U", "NORAD_CAT_ID": 35439, "ELEMENT_SET_NO": 999, "REV_AT_EPOCH": 84071, "BSTAR": 0.0011295, "MEAN_MOTION_DOT": 1.838e-05, "MEAN_MOTION_DDOT": 0}, "tle": {"line1": "1 35439U 93036AKH 25354.65311122  .00001838  00000+0  11295-2 0  9994", "line2": "2 35439  74.0193 121.1801 0242584 288.7541  84.8538 13.92842634840712"}}, "geometry": {"type": "Point", "coordinates": [86.05020207621982, -61.1498269689289]}}, {"type": "Feature", "properties": {"norad_id": 35440, "name": "COSMOS 2251 DEB", "group": "cosmos-2251-debris", "lat": -65.96880707135797, "lon": 48.02282288405684, "alt_km": 658.2860447170351, "timestamp": "2025-12-22T20:43:46.244185+00:00", "meta": {"OBJECT_NAME": "COSMOS 2251 DEB", "OBJECT_ID": "1993-036AKJ", "EPOCH": "2025-12-17T20:15:19.490976", "MEAN_MOTION": 14.68838958, "ECCENTRICITY": 0.00695054, "INCLINATION": 74.0134, "RA_OF_ASC_NODE": 197.7346, "ARG_OF_PERICENTER": 337.3687, "MEAN_ANOMALY": 22.4422, "EPHEMERIS_TYPE": 0, "CLASSIFICATION_TYPE": "U", "NORAD_CAT_ID": 35440, "ELEMENT_SET_NO": 999, "REV_AT_EPOCH": 68840, "BSTAR": 0.00030670457, "MEAN_MOTION_DOT": 1.824e-05, "MEAN_MOTION_DDOT": 0}, "tle": {"line1": "1 35440U 93036AKJ 25351.84397559  .00001824  00000+0  30670-3 0  9996", "line2": "2 35440  74.0134 197.7346 0069505 337.3687  22.4422 14.68838958688408"}}, "geometry": {"type": "Point", "coordinates": [48.02282288405684, -65.96880707135797]}}, {"type": "Feature", "properties": {"norad_id": 35441, "name": "COSMOS 2251 DEB", "group": "cosmos-2251-debris", "lat": -17.96791890333324, "lon": -86.47468944327119, "alt_km": 714.1780756148437, "timestamp": "2025-12-22T20:43:46.244196+00:00", "meta": {"OBJECT_NAME": "COSMOS 2251 DEB", "OBJECT_ID": "1993-036AKK", "EPOCH": "2025-12-21T02:08:13.738560", "MEAN_MOTION": 14.62705296, "ECCENTRICITY": 0.00361872, "INCLINATION": 74.1353, "RA_OF_ASC_NODE": 282.196, "ARG_OF_PERICENTER": 175.8941, "MEAN_ANOMALY": 184.2531, "EPHEMERIS_TYPE": 0, "CLASSIFICATION_TYPE": "U", "NORAD_CAT_ID": 35441, "ELEMENT_SET_NO": 999, "REV_AT_EPOCH": 87552, "BSTAR": 0.00090653358, "MEAN_MOTION_DOT": 4.633e-05, "MEAN_MOTION_DDOT": 0}, "tle": {"line1": "1 35441U 93036AKK 25355.08904790  .00004633  00000+0  90653-3 0  9996", "line2": "2 35441  74.1353 282.1960 0036187 175.8941 184.2531 14.62705296875523"}}, "geometry": {"type": "Point", "coordinates": [-86.47468944327119, -17.96791890333324]}}, {"type": "Feature", "properties": {"norad_id": 35442, "name": "COSMOS 2251 DEB", "group": "cosmos-2251-debris", "lat": -53.876001961122725, "lon": 55.93393578509981, "alt_km": 621.7577993952509, "timestamp": "2025-12-22T20:43:46.244206+00:00", "meta": {"OBJECT_NAME": "COSMOS 2251 DEB", "OBJECT_ID": "1993-036AKL", "EPOCH": "2025-12-21T15:52:41.511648", "MEAN_MOTION": 14.84721405, "ECCENTRICITY": 0.00038256, "INCLINATION": 74.0271, "RA_OF_ASC_NODE": 81.4264, "ARG_OF_PERICENTER": 51.6549, "MEAN_ANOMALY": 308.4973, "EPHEMERIS_TYPE": 0, "CLASSIFICATION_TYPE": "U", "NORAD_CAT_ID": 35442, "ELEMENT_SET_NO": 999, "REV_AT_EPOCH": 87485, "BSTAR": 0.0016051143, "MEAN_MOTION_DOT": 0.00013595, "MEAN_MOTION_DDOT": 0}, "tle": {"line1": "1 35442U 93036AKL 25355.66159157  .00013595  00000+0  16051-2 0  9996", "line2": "2 35442  74.0271  81.4264 0003825  51.6549 308.4973 14.84721405874856"}}, "geometry": {"type": "Point", "coordinates": [55.93393578509981, -53.876001961122725]}}, {"type": "Feature", "properties": {"norad_id": 35443, "name": "COSMOS 2251 DEB", "group": "cosmos-2251-debris", "lat": 65.01240276179217, "lon": -10.921261753092908, "alt_km": 520.1102334690022, "timestamp": "2025-12-22T20:43:46.244216+00:00", "meta": {"OBJECT_NAME": "COSMOS 2251 DEB", "OBJECT_ID": "1993-036AKM", "EPOCH": "2025-12-22T07:35:27.878496", "MEAN_MOTION": 14.97448955, "ECCENTRICITY": 0.00729664, "INCLINATION": 73.9898, "RA_OF_ASC_NODE": 312.1571, "ARG_OF_PERICENTER": 91.4914, "MEAN_ANOMALY": 269.4631, "EPHEMERIS_TYPE": 0, "CLASSIFICATION_TYPE": "U", "NORAD_CAT_ID": 35443, "ELEMENT_SET_NO": 999, "REV_AT_EPOCH": 87021, "BSTAR": 0.0042887537, "MEAN_MOTION_DOT": 0.00053082, "MEAN_MOTION_DDOT": 0}, "tle": {"line1": "1 35443U 93036AKM 25356.31629489  .00053082  00000+0  42888-2 0  9992", "line2": "2 35443  73.9898 312.1571 0072966  91.4914 269.4631 14.97448955870218"}}, "geometry": {"type": "Point", "coordinates": [-10.921261753092908, 65.01240276179217]}}]}